IRIDIUM 57              
1 25273U 98019B   24328.22792975  .00000895  00000+0  30386-3 0  9992
2 25273  86.3989 231.4727 0002242  81.6367 278.5084 14.35593229395230
IRIDIUM 63              
1 25286U 98021B   24328.60535827  .00000856  00000+0  28701-3 0  9997
2 25286  86.4005 168.3111 0001887  90.6396 269.5017 14.36198748394339
IRIDIUM 69              
1 25319U 98026A   24328.54860040  .00001005  00000+0  30958-3 0  9994
2 25319  86.4012 182.2247 0002741  28.5379 331.5970 14.40541957393695
IRIDIUM 71              
1 25320U 98026B   24328.93310249  .00000909  00000+0  27801-3 0  9995
2 25320  86.4006 176.7976 0003891  64.6744 295.4858 14.40781713394039
IRIDIUM 73              
1 25344U 98032C   24328.89792367  .00001648  00000+0  41050-3 0  9991
2 25344  86.4402 133.9885 0001824  69.9829 290.1572 14.51156521400785
IRIDIUM 82              
1 25467U 98051A   24328.81534692  .00033659  00000+0  13645-2 0  9990
2 25467  86.3760 209.5787 0109343 351.7172   8.2260 15.19061842392649
